{
  "type": "FeatureCollection",
  "features": [
    {
      "type": "Feature",
      "properties": {
        "norad_id": 66794,
        "name": "STARLINK-36062",
        "group": "last-30-days",
        "lat": -24.396200467546876,
        "lon": 61.328649844708714,
        "alt_km": 367.2317229599166,
        "timestamp": "2025-12-19T06:59:42.650633+00:00",
        "meta_object_name": "STARLINK-36062",
        "meta_object_id": "2025-278D",
        "meta_epoch": "2025-12-19T00:00:02.000160",
        "meta_mean_motion": 15.68844621,
        "meta_eccentricity": 0.00015937,
        "meta_inclination": 42.9989,
        "meta_ra_of_asc_node": 213.9533,
        "meta_arg_of_pericenter": 265.531,
        "meta_mean_anomaly": 104.3154,
        "meta_ephemeris_type": 0,
        "meta_classification_type": "U",
        "meta_norad_cat_id": 66794,
        "meta_element_set_no": 999,
        "meta_rev_at_epoch": 396,
        "meta_bstar": -0.017960822,
        "meta_mean_motion_dot": -0.01883691,
        "meta_mean_motion_ddot": 0,
        "tle_line1": "1 66794U 25278D   25353.00002315 -.01883691  00000+0 -17961-1 0  9997",
        "tle_line2": "2 66794  42.9989 213.9533 0001593 265.5310 104.3154 15.68844621  3962"
      },
      "geometry": {
        "type": "Point",
        "coordinates": [
          61.328649844708714,
          -24.396200467546876
        ]
      }
    },
    {
      "type": "Feature",
      "properties": {
        "norad_id": 66795,
        "name": "STARLINK-36047",
        "group": "last-30-days",
        "lat": -26.63734322215975,
        "lon": 64.76009128306706,
        "alt_km": 367.4045129248743,
        "timestamp": "2025-12-19T06:59:42.650645+00:00",
        "meta_object_name": "STARLINK-36047",
        "meta_object_id": "2025-278E",
        "meta_epoch": "2025-12-19T00:00:02.000160",
        "meta_mean_motion": 15.68861061,
        "meta_eccentricity": 0.00015934,
        "meta_inclination": 42.9991,
        "meta_ra_of_asc_node": 213.944,
        "meta_arg_of_pericenter": 270.2574,
        "meta_mean_anomaly": 103.4109,
        "meta_ephemeris_type": 0,
        "meta_classification_type": "U",
        "meta_norad_cat_id": 66795,
        "meta_element_set_no": 999,
        "meta_rev_at_epoch": 386,
        "meta_bstar": -0.018126232,
        "meta_mean_motion_dot": -0.01900233,
        "meta_mean_motion_ddot": 0,
        "tle_line1": "1 66795U 25278E   25353.00002315 -.01900233  00000+0 -18126-1 0  9994",
        "tle_line2": "2 66795  42.9991 213.9440 0001593 270.2574 103.4109 15.68861061  3864"
      },
      "geometry": {
        "type": "Point",
        "coordinates": [
          64.76009128306706,
          -26.63734322215975
        ]
      }
    },
    {
      "type": "Feature",
      "properties": {
        "norad_id": 66796,
        "name": "STARLINK-35964",
        "group": "last-30-days",
        "lat": 29.203103971438185,
        "lon": -112.31806536300465,
        "alt_km": 324.0367015829943,
        "timestamp": "2025-12-19T06:59:42.650656+00:00",
        "meta_object_name": "STARLINK-35964",
        "meta_object_id": "2025-278F",
        "meta_epoch": "2025-12-19T00:00:02.000160",
        "meta_mean_motion": 15.8084481,
        "meta_eccentricity": 0.00015748,
        "meta_inclination": 42.9925,
        "meta_ra_of_asc_node": 212.5961,
        "meta_arg_of_pericenter": 270.3002,
        "meta_mean_anomaly": 274.7852,
        "meta_ephemeris_type": 0,
        "meta_classification_type": "U",
        "meta_norad_cat_id": 66796,
        "meta_element_set_no": 999,
        "meta_rev_at_epoch": 380,
        "meta_bstar": 0.00022880261,
        "meta_mean_motion_dot": 0.00045341,
        "meta_mean_motion_ddot": 0,
        "tle_line1": "1 66796U 25278F   25353.00002315  .00045341  00000+0  22880-3 0  9996",
        "tle_line2": "2 66796  42.9925 212.5961 0001574 270.3002 274.7852 15.80844810  3809"
      },
      "geometry": {
        "type": "Point",
        "coordinates": [
          -112.31806536300465,
          29.203103971438185
        ]
      }
    },
    {
      "type": "Feature",
      "properties": {
        "norad_id": 66797,
        "name": "STARLINK-36099",
        "group": "last-30-days",
        "lat": -28.793578280013886,
        "lon": 68.3281445595584,
        "alt_km": 367.55225502809844,
        "timestamp": "2025-12-19T06:59:42.650666+00:00",
        "meta_object_name": "STARLINK-36099",
        "meta_object_id": "2025-278G",
        "meta_epoch": "2025-12-19T00:00:02.000160",
        "meta_mean_motion": 15.68841391,
        "meta_eccentricity": 0.00016797,
        "meta_inclination": 42.9993,
        "meta_ra_of_asc_node": 213.9343,
        "meta_arg_of_pericenter": 274.854,
        "meta_mean_anomaly": 102.6636,
        "meta_ephemeris_type": 0,
        "meta_classification_type": "U",
        "meta_norad_cat_id": 66797,
        "meta_element_set_no": 999,
        "meta_rev_at_epoch": 402,
        "meta_bstar": -0.017923972,
        "meta_mean_motion_dot": -0.01880096,
        "meta_mean_motion_ddot": 0,
        "tle_line1": "1 66797U 25278G   25353.00002315 -.01880096  00000+0 -17924-1 0  9995",
        "tle_line2": "2 66797  42.9993 213.9343 0001679 274.8540 102.6636 15.68841391  4027"
      },
      "geometry": {
        "type": "Point",
        "coordinates": [
          68.3281445595584,
          -28.793578280013886
        ]
      }
    },
    {
      "type": "Feature",
      "properties": {
        "norad_id": 66798,
        "name": "STARLINK-36041",
        "group": "last-30-days",
        "lat": -29.83573358857396,
        "lon": 70.16655062660058,
        "alt_km": 367.55179878582476,
        "timestamp": "2025-12-19T06:59:42.650676+00:00",
        "meta_object_name": "STARLINK-36041",
        "meta_object_id": "2025-278H",
        "meta_epoch": "2025-12-19T00:00:02.000160",
        "meta_mean_motion": 15.68861091,
        "meta_eccentricity": 0.00016195,
        "meta_inclination": 42.9993,
        "meta_ra_of_asc_node": 213.929,
        "meta_arg_of_pericenter": 272.2545,
        "meta_mean_anomaly": 107.1667,
        "meta_ephemeris_type": 0,
        "meta_classification_type": "U",
        "meta_norad_cat_id": 66798,
        "meta_element_set_no": 999,
        "meta_rev_at_epoch": 380,
        "meta_bstar": -0.01814105,
        "meta_mean_motion_dot": -0.01901631,
        "meta_mean_motion_ddot": 0,
        "tle_line1": "1 66798U 25278H   25353.00002315 -.01901631  00000+0 -18141-1 0  9997",
        "tle_line2": "2 66798  42.9993 213.9290 0001619 272.2545 107.1667 15.68861091  3808"
      },
      "geometry": {
        "type": "Point",
        "coordinates": [
          70.16655062660058,
          -29.83573358857396
        ]
      }
    },
    {
      "type": "Feature",
      "properties": {
        "norad_id": 66799,
        "name": "STARLINK-36044",
        "group": "last-30-days",
        "lat": -30.85151642070673,
        "lon": 72.04359547767342,
        "alt_km": 367.60696299971823,
        "timestamp": "2025-12-19T06:59:42.650686+00:00",
        "meta_object_name": "STARLINK-36044",
        "meta_object_id": "2025-278J",
        "meta_epoch": "2025-12-19T00:00:02.000160",
        "meta_mean_motion": 15.68859385,
        "meta_eccentricity": 0.00015983,
        "meta_inclination": 42.9995,
        "meta_ra_of_asc_node": 213.9247,
        "meta_arg_of_pericenter": 272.9896,
        "meta_mean_anomaly": 108.3492,
        "meta_ephemeris_type": 0,
        "meta_classification_type": "U",
        "meta_norad_cat_id": 66799,
        "meta_element_set_no": 999,
        "meta_rev_at_epoch": 396,
        "meta_bstar": -0.018112385,
        "meta_mean_motion_dot": -0.0189883,
        "meta_mean_motion_ddot": 0,
        "tle_line1": "1 66799U 25278J   25353.00002315 -.01898830  00000+0 -18112-1 0  9992",
        "tle_line2": "2 66799  42.9995 213.9247 0001598 272.9896 108.3492 15.68859385  3964"
      },
      "geometry": {
        "type": "Point",
        "coordinates": [
          72.04359547767342,
          -30.85151642070673
        ]
      }
    },
    {
      "type": "Feature",
      "properties": {
        "norad_id": 66800,
        "name": "STARLINK-35996",
        "group": "last-30-days",
        "lat": -32.79722356186094,
        "lon": 75.91608990960741,
        "alt_km": 367.6250650050042,
        "timestamp": "2025-12-19T06:59:42.650698+00:00",
        "meta_object_name": "STARLINK-35996",
        "meta_object_id": "2025-278K",
        "meta_epoch": "2025-12-19T00:00:02.000160",
        "meta_mean_motion": 15.68859441,
        "meta_eccentricity": 0.00016553,
        "meta_inclination": 42.9993,
        "meta_ra_of_asc_node": 213.9148,
        "meta_arg_of_pericenter": 272.4079,
        "meta_mean_anomaly": 112.764,
        "meta_ephemeris_type": 0,
        "meta_classification_type": "U",
        "meta_norad_cat_id": 66800,
        "meta_element_set_no": 999,
        "meta_rev_at_epoch": 375,
        "meta_bstar": -0.01811122,
        "meta_mean_motion_dot": -0.01898769,
        "meta_mean_motion_ddot": 0,
        "tle_line1": "1 66800U 25278K   25353.00002315 -.01898769  00000+0 -18111-1 0  9995",
        "tle_line2": "2 66800  42.9993 213.9148 0001655 272.4079 112.7640 15.68859441  3751"
      },
      "geometry": {
        "type": "Point",
        "coordinates": [
          75.91608990960741,
          -32.79722356186094
        ]
      }
    }
  ]
}